satname,norad_id,inclination_deg,eccentricity,mean_motion_rev_per_day,perigee_km,apogee_km,l1,l2
STARLINK-1316,45415,53.1565,0.0005678,15.3892917,445.3980144081588,453.1512230423841,1 45415U 20019BH  26160.44786525  .00049527  00000+0  12679-2 0  9990,2 45415  53.1565  60.3093 0005678  86.6632 273.5022 15.38929170344089
STARLINK-1286,45417,53.0467,0.0001461,15.64279232,374.3257946208487,376.29915255703236,1 45417U 20019BK  26160.39943104  .00052114  00000+0  53817-3 0  9990,2 45417  53.0467  46.7283 0001461 204.8480 155.2464 15.64279232344500
STARLINK-1308,45419,53.0463,0.0007516,15.65932844,365.4849270218174,375.62956421182935,1 45419U 20019BM  26160.04140928  .00043956  00000+0  42583-3 0  9999,2 45419  53.0463  67.8729 0007516  52.6710 307.4989 15.65932844343923
STARLINK-1329,45531,53.0434,0.0002688,15.73521257,347.0341993769516,350.6506235085426,1 45531U 20025A   26160.78908996  .00071113  00000+0  49977-3 0  9999,2 45531  53.0434 347.8080 0002688 159.0387 201.0741 15.73521257339891
STARLINK-1338,45532,53.0447,0.0002661,15.68059225,362.660576656961,366.24898400245274,1 45532U 20025B   26160.69337111  .00049460  00000+0  43934-3 0  9992,2 45532  53.0447 355.0021 0002661 106.9038 253.2269 15.68059225339784
STARLINK-1350,45535,53.0733,0.0001353,15.38265227,450.3150188002801,452.16304795491124,1 45535U 20025E   26160.72186923  .00008538  00000+0  23314-3 0  9993,2 45535  53.0733 320.1840 0001353  87.9562 272.1596 15.38265227340316
STARLINK-1362,45538,53.1576,0.0003374,15.3742049,451.43533323676,456.04548411213455,1 45538U 20025H   26160.36135043 -.00181750  00000+0 -49880-2 0  9998,2 45538  53.1576  33.1019 0003374 174.5034 185.6008 15.37420490339246
STARLINK-1368,45540,53.1587,0.0004066,15.37527724,450.6450358422071,456.20046022931,1 45540U 20025K   26159.91936207  .00037169  00000+0  10003-2 0  9998,2 45540  53.1587  35.5399 0004066 136.6258 223.5066 15.37527724339169
STARLINK-1371,45542,53.0454,0.0004195,15.6260323,377.3055466998567,382.97574164331763,1 45542U 20025M   26160.86339080  .00087278  00000+0  95409-3 0  9992,2 45542  53.0454   3.9294 0004195 153.6567 206.4660 15.62603230339672
STARLINK-1372,45543,53.1564,0.000303,15.38042261,449.829541138829,453.9685429803176,1 45543U 20025N   26159.87765543  .00036943  00000+0  97803-3 0  9992,2 45543  53.1564  35.2288 0003030 124.5948 235.5342 15.38042261338262
STARLINK-1373,45544,53.0452,0.0002539,15.69998871,357.18970518668357,360.61077269661746,1 45544U 20025P   26160.70971299  .00057936  00000+0  47393-3 0  9998,2 45544  53.0452   0.1393 0002539  73.1552 286.9743 15.69998871339716
STARLINK-1327,45555,53.0424,0.0003722,15.67402046,363.8290400017886,368.8496281848875,1 45555U 20025AA  26160.75507813  .00049229  00000+0  44909-3 0  9998,2 45555  53.0424 337.1115 0003722  78.8423 281.3011 15.67402046340032
STARLINK-1356,45564,53.0435,4.55e-05,15.65334809,371.96888147209756,372.58316905739684,1 45564U 20025AK  26160.77928202  .00045527  00000+0  45195-3 0  9994,2 45564  53.0435 350.1771 0000455 345.0441  15.0560 15.65334809339854
STARLINK-1357,45565,53.0456,0.0004743,15.69693543,356.5780533522948,362.9696355793558,1 45565U 20025AL  26160.67949619  .00058237  00000+0  48224-3 0  9997,2 45565  53.0456 307.3388 0004743 123.2490 236.8982 15.69693543340456
STARLINK-1361,45567,53.0437,0.0002062,15.63023699,377.53525340768647,380.3218672447656,1 45567U 20025AN  26160.84181808  .00105901  00000+0  11353-2 0  9999,2 45567  53.0437 348.2002 0002062 279.2992  80.7788 15.63023699339894
STARLINK-1376,45570,53.1592,0.0003691,15.38395248,448.3336470504137,453.3748083747105,1 45570U 20025AR  26160.30909759  .00051603  00000+0  13438-2 0  9992,2 45570  53.1592   9.6027 0003691 116.0814 244.0571 15.38395248339569
STARLINK-1320,45572,53.0408,0.0008763,15.87430262,303.63007376985206,315.3508096241703,1 45572U 20025AT  26161.00004630  .00198513  00000+0  72015-3 0  9995,2 45572  53.0408 244.4987 0008763 343.3262 298.3621 15.87430262  6016
STARLINK-1321,45573,53.0436,0.0001407,15.64036644,375.0604706526292,376.9610878377089,1 45573U 20025AU  26160.72210630  .00111352  00000+0  11462-2 0  9997,2 45573  53.0436 332.6698 0001407 180.8096 179.2916 15.64036644339793
STARLINK-1331,45578,53.0464,0.0001859,15.63747591,375.5873224199704,378.09882401119194,1 45578U 20025AZ  26160.80984564  .00102945  00000+0  10733-2 0  9993,2 45578  53.0464 339.1466 0001859 117.0746 243.0458 15.63747591340027
STARLINK-1333,45580,53.1565,0.0002034,15.35436284,458.2341174320509,461.01571898037673,1 45580U 20025BB  26160.75005214  .00051366  00000+0  14717-2 0  9992,2 45580  53.1565   9.0777 0002034 151.9794 208.1319 15.35436284339611
STARLINK-1335,45581,53.1547,0.0004271,15.37075479,451.8443582607624,457.68102117571925,1 45581U 20025BC  26160.00004630  .00087323  00000+0  23548-2 0  9996,2 45581  53.1547   9.3014 0004271 134.2126 239.4691 15.37075479  5849
STARLINK-1337,45582,53.0453,0.0003749,15.74773706,342.75459714857516,347.79581161942133,1 45582U 20025BD  26160.84789654  .00109725  00000+0  72493-3 0  9990,2 45582  53.0453 328.1588 0003749 104.5078 255.6357 15.74773706340163
STARLINK-1347,45586,53.0377,0.0001494,15.68877534,361.10300985021513,363.1169956546373,1 45586U 20025BH  26161.00004630 -.00060987  00000+0 -51979-3 0  9991,2 45586  53.0377 297.9734 0001494 127.0035  28.6199 15.68877534  5938
STARLINK-1364,45589,53.0441,1.81e-05,15.69551178,360.0593129531826,360.3032400747916,1 45589U 20025BL  26160.72443798  .00055769  00000+0  46507-3 0  9995,2 45589  53.0441 336.0231 0000181 281.6176  78.4820 15.69551178340047
STARLINK-1365,45590,53.0476,0.0002183,15.59480377,387.68261675677786,390.637218591035,1 45590U 20025BM  26160.85958104  .00093610  00000+0  11527-2 0  9993,2 45590  53.0476   9.6493 0002183 112.6812 247.4431 15.59480377339601
STARLINK-1443,45660,53.1348,0.000234,15.32699929,466.1589394421926,469.36281964982027,1 45660U 20035D   26161.00004630  .00083867  00000+0  26014-2 0  9996,2 45660  53.1348 356.6618 0002340  97.5206 206.3410 15.32699929  5826
STARLINK-1446,45663,53.0225,0.0001788,15.477467,422.1032751939565,424.5354759938691,1 45663U 20035G   26160.59649753  .00030711  00000+0  58920-3 0  9995,2 45663  53.0225 281.3263 0001788 199.4784 160.6155 15.47746700333884
STARLINK-1448,45665,53.044,0.0004313,15.68467688,360.3765431731308,366.19169302960563,1 45665U 20035J   26160.81720309  .00060216  00000+0  52415-3 0  9995,2 45665  53.0440 322.9417 0004313 100.8851 259.2651 15.68467688333318
STARLINK-1451,45668,53.0537,0.0002051,15.14288102,521.7252160704029,524.5561201698665,1 45668U 20035M   26159.88473082  .00029025  00000+0  15774-2 0  9995,2 45668  53.0537  12.9346 0002051 114.8357 245.2849 15.14288102332549
STARLINK-1452,45669,53.0261,0.0004111,15.59250713,387.04210154663724,392.60671941833516,1 45669U 20035N   26160.64582989  .00085967  00000+0  10691-2 0  9999,2 45669  53.0261 299.0218 0004111 318.7379  41.3321 15.59250713333646
STARLINK-1453,45670,53.0393,0.0001967,15.68988126,360.4675251796689,363.11901374767695,1 45670U 20035P   26160.78437525  .00065368  00000+0  55639-3 0  9996,2 45670  53.0393 283.3848 0001967 302.0393  58.0432 15.68988126333764
STARLINK-1454,45671,53.0446,0.0002081,15.66903125,366.3671168447745,369.17476372952297,1 45671U 20035Q   26160.69619223  .00051439  00000+0  47854-3 0  9998,2 45671  53.0446 324.7867 0002081  42.3779 317.7396 15.66903125333279
STARLINK-1456,45673,53.0431,0.0003755,15.65796606,368.4144218765541,373.48298523992617,1 45673U 20035S   26160.72897708  .00048760  00000+0  47455-3 0  9990,2 45673  53.0431 319.2211 0003755 163.7959 196.3176 15.65796606333375
STARLINK-1458,45675,53.0464,9.87e-05,15.57445259,394.3853509148248,395.72237879154545,1 45675U 20035U   26160.76285273  .00097491  00000+0  12953-2 0  9993,2 45675  53.0464 333.7751 0000987  63.6730 296.4382 15.57445259333133
STARLINK-1460,45676,53.1583,0.0002255,15.35269293,458.57871029199214,461.6627645315648,1 45676U 20035V   26160.72590839  .00053739  00000+0  15469-2 0  9999,2 45676  53.1583 356.3830 0002255 170.7642 189.3403 15.35269293332825
STARLINK-1392,45677,53.1552,0.0002068,15.38558873,448.9579105733819,451.7821810875366,1 45677U 20035W   26160.80478782  .00054751  00000+0  14172-2 0  9996,2 45677  53.1552 354.6021 0002068 189.6976 170.3989 15.38558873332890
STARLINK-1394,45679,53.0404,0.0004182,15.65459387,369.09501926282155,374.74076517467256,1 45679U 20035Y   26160.66858715  .00044580  00000+0  44040-3 0  9997,2 45679  53.0404 309.8064 0004182 180.3347 179.7665 15.65459387333496
STARLINK-1402,45685,53.0409,0.0004345,15.57993008,390.5239940824267,396.4085173116264,1 45685U 20035AE  26160.68417960  .00045032  00000+0  59336-3 0  9996,2 45685  53.0409 300.6488 0004345 202.3038 157.7785 15.57993008333639
STARLINK-1404,45686,53.1576,0.0003263,15.44865585,429.5509790028764,433.99512630323716,1 45686U 20035AF  26160.72585080  .00063986  00000+0  13396-2 0  9994,2 45686  53.1576 336.5329 0003263 196.0301 164.0603 15.44865585333148
STARLINK-1413,45689,53.1602,0.0001596,15.35209621,459.2065193554545,461.38934778624935,1 45689U 20035AJ  26160.76489434  .00051264  00000+0  14795-2 0  9997,2 45689  53.1602 340.8461 0001596 197.3387 162.7562 15.35209621333008
STARLINK-1417,45693,53.0521,0.0004869,15.16956207,511.6897751603028,518.402356829969,1 45693U 20035AN  26160.70665486  .00029150  00000+0  14687-2 0  9998,2 45693  53.0521 355.8286 0004869 142.7798 217.3534 15.16956207332844
STARLINK-1420,45695,53.0451,0.0003069,15.68403949,361.3977635557894,365.5357599447525,1 45695U 20035AQ  26160.61538643  .00051067  00000+0  44701-3 0  9997,2 45695  53.0451 293.2077 0003069 129.0488 231.0801 15.68403949333721
STARLINK-1422,45696,53.1576,0.0001782,15.35147217,459.2646125614683,461.7018968202401,1 45696U 20035AR  26160.76825852  .00049297  00000+0  14263-2 0  9996,2 45696  53.1576 340.7844 0001782 175.1210 184.9811 15.35147217333089
